start=new Date('2022-03-03T00:00:00.000Z').valueOf();
sats=[{"MEAN_ELEMENT_THEORY":"SGP4","RA_OF_ASC_NODE":"359.6210","ELEMENT_SET_NO":"999","CLASSIFICATION_TYPE":"U","GP_ID":"197661895","TIME_SYSTEM":"UTC","ARG_OF_PERICENTER":"282.5523","SITE":"AFWTR","FILE":"3341695","EPHEMERIS_TYPE":"0","PERIOD":"92.663","NORAD_CAT_ID":"50173","MEAN_MOTION_DDOT":"0.0000000000000","TLE_LINE1":"1 50173U 21125T   22061.91667824 -.00301568  00000-0 -47450-2 0  9998","ECCENTRICITY":"0.00050350","PERIAPSIS":"401.584","OBJECT_TYPE":"PAYLOAD","REF_FRAME":"TEME","LAUNCH_DATE":"2021-12-18","OBJECT_NAME":"STARLINK-3289","APOAPSIS":"408.415","TLE_LINE2":"2 50173  53.2177 359.6210 0005035 282.5523 288.7694 15.54021795  3689","OBJECT_ID":"2021-125T","SEMIMAJOR_AXIS":"6783.135","MEAN_MOTION":"15.54021795","BSTAR":"-0.00474500000000","MEAN_ANOMALY":"288.7694","RCS_SIZE":"LARGE","MEAN_MOTION_DOT":"-0.00301568","REV_AT_EPOCH":"368","CENTER_NAME":"EARTH","EPOCH":"2022-03-02T22:00:00.999936","INCLINATION":"53.2177","DECAY_DATE":null,"COUNTRY_CODE":"US"},{"COUNTRY_CODE":"US","DECAY_DATE":null,"INCLINATION":"53.2176","EPOCH":"2022-03-02T22:00:00.999936","CENTER_NAME":"EARTH","REV_AT_EPOCH":"368","MEAN_MOTION_DOT":"-0.00660949","RCS_SIZE":"LARGE","MEAN_ANOMALY":"93.0593","BSTAR":"-0.01794500000000","SEMIMAJOR_AXIS":"6826.285","MEAN_MOTION":"15.39310223","OBJECT_ID":"2021-125U","TLE_LINE2":"2 50174  53.2176   0.4716 0001684  42.1434  93.0593 15.39310223  3683","APOAPSIS":"449.299","OBJECT_NAME":"STARLINK-3292","REF_FRAME":"TEME","LAUNCH_DATE":"2021-12-18","OBJECT_TYPE":"PAYLOAD","ECCENTRICITY":"0.00016840","TLE_LINE1":"1 50174U 21125U   22061.91667824 -.00660949  00000-0 -17945-1 0  9995","PERIAPSIS":"447.000","MEAN_MOTION_DDOT":"0.0000000000000","PERIOD":"93.548","NORAD_CAT_ID":"50174","EPHEMERIS_TYPE":"0","FILE":"3341695","SITE":"AFWTR","ARG_OF_PERICENTER":"42.1434","TIME_SYSTEM":"UTC","GP_ID":"197662146","CLASSIFICATION_TYPE":"U","RA_OF_ASC_NODE":"0.4716","ELEMENT_SET_NO":"999","MEAN_ELEMENT_THEORY":"SGP4"},{"MEAN_MOTION_DDOT":"0.0000000000000","NORAD_CAT_ID":"50175","PERIOD":"93.590","FILE":"3341695","EPHEMERIS_TYPE":"0","OBJECT_TYPE":"PAYLOAD","PERIAPSIS":"449.220","TLE_LINE1":"1 50175U 21125V   22061.91667824 -.00662883  00000-0 -18416-1 0  9999","ECCENTRICITY":"0.00014200","CLASSIFICATION_TYPE":"U","GP_ID":"197660893","MEAN_ELEMENT_THEORY":"SGP4","RA_OF_ASC_NODE":"0.4767","ELEMENT_SET_NO":"999","SITE":"AFWTR","TIME_SYSTEM":"UTC","ARG_OF_PERICENTER":"48.6052","REV_AT_EPOCH":"367","MEAN_MOTION_DOT":"-0.00662883","BSTAR":"-0.01841600000000","SEMIMAJOR_AXIS":"6828.325","MEAN_MOTION":"15.38620561","RCS_SIZE":"LARGE","MEAN_ANOMALY":"20.1278","DECAY_DATE":null,"COUNTRY_CODE":"US","CENTER_NAME":"EARTH","INCLINATION":"53.2174","EPOCH":"2022-03-02T22:00:00.999936","TLE_LINE2":"2 50175  53.2174   0.4767 0001420  48.6052  20.1278 15.38620561  3671","OBJECT_NAME":"STARLINK-3291","REF_FRAME":"TEME","LAUNCH_DATE":"2021-12-18","APOAPSIS":"451.159","OBJECT_ID":"2021-125V"},{"TLE_LINE2":"2 50176  53.2175   0.4726 0001843  36.3914  87.8183 15.39195225  3689","OBJECT_NAME":"STARLINK-3293","REF_FRAME":"TEME","LAUNCH_DATE":"2021-12-18","APOAPSIS":"449.748","OBJECT_ID":"2021-125W","REV_AT_EPOCH":"368","MEAN_MOTION_DOT":"-0.00661201","BSTAR":"-0.01802000000000","SEMIMAJOR_AXIS":"6826.625","MEAN_MOTION":"15.39195225","RCS_SIZE":"LARGE","MEAN_ANOMALY":"87.8183","COUNTRY_CODE":"US","DECAY_DATE":null,"CENTER_NAME":"EARTH","INCLINATION":"53.2175","EPOCH":"2022-03-02T22:00:00.999936","CLASSIFICATION_TYPE":"U","GP_ID":"197660644","MEAN_ELEMENT_THEORY":"SGP4","ELEMENT_SET_NO":"999","RA_OF_ASC_NODE":"0.4726","SITE":"AFWTR","TIME_SYSTEM":"UTC","ARG_OF_PERICENTER":"36.3914","MEAN_MOTION_DDOT":"0.0000000000000","PERIOD":"93.555","NORAD_CAT_ID":"50176","FILE":"3341695","EPHEMERIS_TYPE":"0","OBJECT_TYPE":"PAYLOAD","ECCENTRICITY":"0.00018430","TLE_LINE1":"1 50176U 21125W   22061.91667824 -.00661201  00000-0 -18020-1 0  9994","PERIAPSIS":"447.232"},{"DECAY_DATE":null,"COUNTRY_CODE":"US","EPOCH":"2022-03-02T22:00:00.999936","INCLINATION":"53.2174","CENTER_NAME":"EARTH","MEAN_MOTION_DOT":"-0.00662365","REV_AT_EPOCH":"368","MEAN_ANOMALY":"52.6478","RCS_SIZE":"LARGE","SEMIMAJOR_AXIS":"6827.644","MEAN_MOTION":"15.38850466","BSTAR":"-0.01826100000000","OBJECT_ID":"2021-125X","TLE_LINE2":"2 50177  53.2174   0.4753 0001673  38.3780  52.6478 15.38850466  3684","APOAPSIS":"450.652","LAUNCH_DATE":"2021-12-18","REF_FRAME":"TEME","OBJECT_NAME":"STARLINK-3282","OBJECT_TYPE":"PAYLOAD","TLE_LINE1":"1 50177U 21125X   22061.91667824 -.00662365  00000-0 -18261-1 0  9994","ECCENTRICITY":"0.00016730","PERIAPSIS":"448.367","NORAD_CAT_ID":"50177","PERIOD":"93.576","MEAN_MOTION_DDOT":"0.0000000000000","EPHEMERIS_TYPE":"0","FILE":"3341695","SITE":"AFWTR","ARG_OF_PERICENTER":"38.3780","TIME_SYSTEM":"UTC","GP_ID":"197661396","CLASSIFICATION_TYPE":"U","ELEMENT_SET_NO":"999","RA_OF_ASC_NODE":"0.4753","MEAN_ELEMENT_THEORY":"SGP4"},{"EPOCH":"2022-03-02T22:00:00.999936","INCLINATION":"53.2175","CENTER_NAME":"EARTH","COUNTRY_CODE":"US","DECAY_DATE":null,"MEAN_ANOMALY":"332.7880","RCS_SIZE":"LARGE","SEMIMAJOR_AXIS":"6830.328","MEAN_MOTION":"15.37943657","BSTAR":"-0.01884900000000","MEAN_MOTION_DOT":"-0.00663531","REV_AT_EPOCH":"367","OBJECT_ID":"2021-125Y","APOAPSIS":"453.179","LAUNCH_DATE":"2021-12-18","REF_FRAME":"TEME","OBJECT_NAME":"STARLINK-3284","TLE_LINE2":"2 50178  53.2175   0.4628 0001443  47.2537 332.7880 15.37943657  3673","ECCENTRICITY":"0.00014430","TLE_LINE1":"1 50178U 21125Y   22061.91667824 -.00663531  00000-0 -18849-1 0  9993","PERIAPSIS":"451.207","OBJECT_TYPE":"PAYLOAD","EPHEMERIS_TYPE":"0","FILE":"3341695","NORAD_CAT_ID":"50178","PERIOD":"93.632","MEAN_MOTION_DDOT":"0.0000000000000","ARG_OF_PERICENTER":"47.2537","TIME_SYSTEM":"UTC","SITE":"AFWTR","RA_OF_ASC_NODE":"0.4628","ELEMENT_SET_NO":"999","MEAN_ELEMENT_THEORY":"SGP4","GP_ID":"197661647","CLASSIFICATION_TYPE":"U"},{"SITE":"AFWTR","ARG_OF_PERICENTER":"39.7733","TIME_SYSTEM":"UTC","GP_ID":"197660394","CLASSIFICATION_TYPE":"U","ELEMENT_SET_NO":"999","RA_OF_ASC_NODE":"0.4736","MEAN_ELEMENT_THEORY":"SGP4","OBJECT_TYPE":"PAYLOAD","PERIAPSIS":"447.670","TLE_LINE1":"1 50179U 21125Z   22061.91667824 -.00661748  00000-0 -18105-1 0  9997","ECCENTRICITY":"0.00016990","MEAN_MOTION_DDOT":"0.0000000000000","PERIOD":"93.562","NORAD_CAT_ID":"50179","EPHEMERIS_TYPE":"0","FILE":"3341695","OBJECT_ID":"2021-125Z","TLE_LINE2":"2 50179  53.2175   0.4736 0001699  39.7733  73.4091 15.39080368  3688","APOAPSIS":"449.989","OBJECT_NAME":"STARLINK-3283","REF_FRAME":"TEME","LAUNCH_DATE":"2021-12-18","DECAY_DATE":null,"COUNTRY_CODE":"US","INCLINATION":"53.2175","EPOCH":"2022-03-02T22:00:00.999936","CENTER_NAME":"EARTH","REV_AT_EPOCH":"368","MEAN_MOTION_DOT":"-0.00661748","RCS_SIZE":"MEDIUM","MEAN_ANOMALY":"73.4091","BSTAR":"-0.01810500000000","MEAN_MOTION":"15.39080368","SEMIMAJOR_AXIS":"6826.964"},{"NORAD_CAT_ID":"50180","PERIOD":"93.534","MEAN_MOTION_DDOT":"0.0000000000000","FILE":"3341695","EPHEMERIS_TYPE":"0","OBJECT_TYPE":"PAYLOAD","TLE_LINE1":"1 50180U 21125AA  22061.91667824 -.00660309  00000-0 -17790-1 0  9990","ECCENTRICITY":"0.00018560","PERIAPSIS":"446.203","CLASSIFICATION_TYPE":"U","GP_ID":"197661144","MEAN_ELEMENT_THEORY":"SGP4","ELEMENT_SET_NO":"999","RA_OF_ASC_NODE":"0.4693","SITE":"AFWTR","TIME_SYSTEM":"UTC","ARG_OF_PERICENTER":"38.4281","MEAN_MOTION_DOT":"-0.00660309","REV_AT_EPOCH":"368","SEMIMAJOR_AXIS":"6825.605","MEAN_MOTION":"15.39540170","BSTAR":"-0.01779000000000","MEAN_ANOMALY":"118.6586","RCS_SIZE":"LARGE","COUNTRY_CODE":"US","DECAY_DATE":null,"CENTER_NAME":"EARTH","EPOCH":"2022-03-02T22:00:00.999936","INCLINATION":"53.2177","TLE_LINE2":"2 50180  53.2177   0.4693 0001856  38.4281 118.6586 15.39540170  3686","LAUNCH_DATE":"2021-12-18","REF_FRAME":"TEME","OBJECT_NAME":"STARLINK-3265","APOAPSIS":"448.737","OBJECT_ID":"2021-125AA"},{"OBJECT_ID":"2021-125AB","APOAPSIS":"448.018","REF_FRAME":"TEME","LAUNCH_DATE":"2021-12-18","OBJECT_NAME":"STARLINK-3285","TLE_LINE2":"2 50181  53.2177   0.4670 0001800  40.2461 138.5883 15.39770373  3672","EPOCH":"2022-03-02T22:00:00.999936","INCLINATION":"53.2177","CENTER_NAME":"EARTH","DECAY_DATE":null,"COUNTRY_CODE":"US","MEAN_ANOMALY":"138.5883","RCS_SIZE":"LARGE","SEMIMAJOR_AXIS":"6824.925","MEAN_MOTION":"15.39770373","BSTAR":"-0.01765000000000","MEAN_MOTION_DOT":"-0.00660127","REV_AT_EPOCH":"367","ARG_OF_PERICENTER":"40.2461","TIME_SYSTEM":"UTC","SITE":"AFWTR","ELEMENT_SET_NO":"999","RA_OF_ASC_NODE":"0.4670","MEAN_ELEMENT_THEORY":"SGP4","GP_ID":"197661896","CLASSIFICATION_TYPE":"U","TLE_LINE1":"1 50181U 21125AB  22061.91667824 -.00660127  00000-0 -17650-1 0  9994","ECCENTRICITY":"0.00018000","PERIAPSIS":"445.561","OBJECT_TYPE":"PAYLOAD","EPHEMERIS_TYPE":"0","FILE":"3341695","PERIOD":"93.520","NORAD_CAT_ID":"50181","MEAN_MOTION_DDOT":"0.0000000000000"},{"MEAN_MOTION_DDOT":"0.0000000000000","NORAD_CAT_ID":"50182","PERIOD":"93.506","FILE":"3341695","EPHEMERIS_TYPE":"0","OBJECT_TYPE":"PAYLOAD","TLE_LINE1":"1 50182U 21125AC  22061.91667824 -.00660058  00000-0 -17514-1 0  9997","ECCENTRICITY":"0.00017520","PERIAPSIS":"444.914","CLASSIFICATION_TYPE":"U","GP_ID":"197662147","MEAN_ELEMENT_THEORY":"SGP4","ELEMENT_SET_NO":"999","RA_OF_ASC_NODE":"0.4641","SITE":"AFWTR","TIME_SYSTEM":"UTC","ARG_OF_PERICENTER":"43.3162","REV_AT_EPOCH":"367","MEAN_MOTION_DOT":"-0.00660058","BSTAR":"-0.01751400000000","SEMIMAJOR_AXIS":"6824.244","MEAN_MOTION":"15.40000660","RCS_SIZE":"LARGE","MEAN_ANOMALY":"157.1297","COUNTRY_CODE":"US","DECAY_DATE":null,"CENTER_NAME":"EARTH","INCLINATION":"53.2177","EPOCH":"2022-03-02T22:00:00.999936","TLE_LINE2":"2 50182  53.2177   0.4641 0001752  43.3162 157.1297 15.40000660  3672","OBJECT_NAME":"STARLINK-3277","LAUNCH_DATE":"2021-12-18","REF_FRAME":"TEME","APOAPSIS":"447.305","OBJECT_ID":"2021-125AC"}];
